{
  "last_updated": "2026-05-16T06:00:03.163455",
  "satellites": {
    "98592": {
      "name": "DUTHSat-2",
      "norad_id": "98592",
      "tle": "1 64530U 25135C   26135.28818082  .00006653  00000-0  26088-3 0  9995\n2 64530  97.4584 251.2409 0003420 312.1294  47.9653 15.26088422 49916",
      "epoch": "2026-05-15T06:54:58.822848",
      "fetched_at": "2026-05-16T06:00:03.276876",
      "source": "satnogs"
    },
    "98530": {
      "name": "LAMARR",
      "norad_id": "98530",
      "tle": "1 66673U 25276H   26026.90917087  .00034524  00000-0  16680-2 0  9998\n2 66673  97.4301 102.8338 0007597 141.5941 218.5835 15.18529012  8972",
      "epoch": "2026-01-26T21:49:12.363168",
      "fetched_at": "2026-01-28T06:00:02.884758",
      "source": "satnogs",
      "note": "Using previous TLE (fetch/manual failed today)"
    },
    "98529": {
      "name": "DIRAC",
      "norad_id": "98529",
      "tle": "1 66681U 25276R   26026.63281774  .00024563  00000-0  11745-2 0  9993\n2 66681  97.4280 102.5712 0006320 148.4115 211.7500 15.18972786  8932",
      "epoch": "2026-01-26T15:11:15.452736",
      "fetched_at": "2026-01-28T06:00:02.937152",
      "source": "satnogs",
      "note": "Using previous TLE (fetch/manual failed today)"
    },
    "98518": {
      "name": "MICE-1",
      "norad_id": "98518",
      "tle": "1 66684U 25276U   26135.17724936  .00002112  00000-0  10431-3 0  9996\n2 66684  97.4280 209.3600 0007161 106.4784 253.7238 15.18936670 25404",
      "epoch": "2026-05-15T04:15:14.344704",
      "fetched_at": "2026-05-16T06:00:03.458302",
      "source": "satnogs"
    },
    "68416": {
      "name": "PeakSat",
      "norad_id": "68416",
      "tle": "1 68416U 26067A   26134.43523225  .00004897  00000-0  23705-3 0  9996\n2 68416  97.4525  93.4527 0003671  60.9974 299.1628 15.19029816  6826",
      "epoch": "2026-05-14T10:26:44.066400",
      "fetched_at": "2026-05-16T06:00:03.520247",
      "source": "satnogs"
    },
    "98370": {
      "name": "OptiSat",
      "norad_id": "98370",
      "tle": "1 69696U 69696    26089.46895426  .00000000  00000-0  00000-0 0 00004\n2 69696 097.4414 038.3720 0003145 156.7651 191.1423 15.18459822000011",
      "epoch": "2026-03-30T11:15:17.648064",
      "fetched_at": "2026-04-17T12:47:18.541523",
      "source": "manual"
    },
    "68468": {
      "name": "ERMIS-1",
      "norad_id": "68468",
      "tle": "1 68468U 26067BE  26134.62506507  .00005597  00000-0  28536-3 0  9993\n2 68468  97.4533  93.5143 0007421 155.9570 204.2011 15.17133257  6849",
      "epoch": "2026-05-14T15:00:05.622048",
      "fetched_at": "2026-05-16T06:00:03.580978",
      "source": "satnogs"
    },
    "68420": {
      "name": "ERMIS-2",
      "norad_id": "68420",
      "tle": "1 68420U 26067E   26134.63350538  .00006449  00000-0  31027-3 0  9999\n2 68420  97.4461  93.6132 0002859  61.2648 298.8873 15.19122667  6852",
      "epoch": "2026-05-14T15:12:14.864832",
      "fetched_at": "2026-05-16T06:00:03.638862",
      "source": "satnogs"
    },
    "98367": {
      "name": "ERMIS-3",
      "norad_id": "98367",
      "tle": "1 68425U 26067K   26135.10933781  .00003320  00000-0  16451-3 0  9993\n2 68425  97.4570  94.1076 0003575  89.1988 270.9655 15.18442693  6923",
      "epoch": "2026-05-15T02:37:26.786784",
      "fetched_at": "2026-05-16T06:00:03.700631",
      "source": "satnogs"
    },
    "69021": {
      "name": "Helios",
      "norad_id": "69021",
      "tle": "1 69021U 26100AT  26135.25263266  .00004199  00000-0  20061-3 0  9991\n2 69021  97.4065  33.6492 0006739  99.8305 260.3691 15.19551156  1802",
      "epoch": "2026-05-15T06:03:47.461824",
      "fetched_at": "2026-05-16T06:00:03.759381",
      "source": "satnogs"
    },
    "69020": {
      "name": "Selene",
      "norad_id": "69020",
      "tle": "1 69020U 26100AS  26135.25339189  .00004125  00000-0  19771-3 0  9993\n2 69020  97.4081  33.6536 0006182  94.6872 265.5069 15.19453707  1801",
      "epoch": "2026-05-15T06:04:53.059296",
      "fetched_at": "2026-05-16T06:00:03.822420",
      "source": "satnogs"
    }
  },
  "fetch_log": []
}